SL-16 R/B               
1 22566U 93016B   26040.93306455 -.00000191  00000+0 -73784-4 0  9992
2 22566  71.0064 273.4820 0010363 351.8264   8.2688 14.15303421698244
COSMOS 2242             
1 22626U 93024A   26041.15452121  .00002115  00000+0  18375-3 0  9995
2 22626  82.5190 293.0532 0017547  41.9301 318.3261 14.96434018776274
SL-16 R/B               
1 22803U 93059B   26041.51483830  .00000028  00000+0  37765-4 0  9997
2 22803  70.9891  68.4348 0019492 253.9427 105.9550 14.17228093675685
ARIANE 40 R/B           
1 22830U 93061H   26041.18522799  .00000206  00000+0  91471-4 0  9993
2 22830  98.4976 110.6075 0010727  11.9618 348.1819 14.32846234690166
COSMOS 2278             
1 23087U 94023A   26041.58112384 -.00000080  00000+0 -17125-4 0  9992
2 23087  71.0500 231.8126 0006711  65.0595 295.1225 14.14363406640977
SL-16 R/B               
1 23088U 94023B   26041.56920793  .00000122  00000+0  87841-4 0  9999
2 23088  70.9997 127.8456 0004497 311.0924  48.9810 14.15003964642253
SL-16 R/B               
1 23343U 94074B   26041.54698766  .00000528  00000+0  77473-4 0  9999
2 23343  97.7146  73.4597 0005537 319.9775 160.6985 14.79375138683232
SL-16 R/B               
1 23405U 94077B   26041.42007878  .00000218  00000+0  13606-3 0  9999
2 23405  70.9817  49.8586 0004217 234.2768 125.7963 14.15557981612372
ARIANE 40+ R/B          
1 23561U 95021B   26041.22842087  .00000325  00000+0  11767-3 0  9994
2 23561  98.4555 113.0753 0006160 216.1555 213.0800 14.39752005615296
SL-16 R/B               
1 23705U 95058B   26041.56705984  .00000254  00000+0  15403-3 0  9997
2 23705  71.0191 237.1977 0012112 170.8208 189.3139 14.15493736564010
SL-16 R/B               
1 24298U 96051B   26041.54564239  .00000091  00000+0  76189-4 0  9991
2 24298  70.7565 232.6928 0017397 186.2154 173.8752 14.12407803517818
ORBVIEW 2 (SEASTAR)     
1 24883U 97037A   26041.44297992  .00000374  00000+0  14639-3 0  9999
2 24883  98.8519 205.0403 0002988 127.2927 232.8531 14.35473658504568
