CCSDS_OMM_VERS = 2.0
CREATION_DATE  = 
ORIGINATOR     = 

OBJECT_NAME    = SL-16 R/B
OBJECT_ID      = 1993-016B
CENTER_NAME    = EARTH
REF_FRAME      = TEME
TIME_SYSTEM    = UTC
MEAN_ELEMENT_THEORY = SGP/SGP4

EPOCH          = 2026-02-09T22:23:36.777120
MEAN_MOTION    = 14.15303421
ECCENTRICITY   = .0010363
INCLINATION    = 71.0064
RA_OF_ASC_NODE = 273.4820
ARG_OF_PERICENTER = 351.8264
MEAN_ANOMALY   = 8.2688

EPHEMERIS_TYPE = 0
CLASSIFICATION_TYPE = U
NORAD_CAT_ID   = 22566
ELEMENT_SET_NO = 999
REV_AT_EPOCH   = 69824
BSTAR          = -.73784E-4
MEAN_MOTION_DOT = -.191E-5
MEAN_MOTION_DDOT = 0

CCSDS_OMM_VERS = 2.0
CREATION_DATE  = 
ORIGINATOR     = 

OBJECT_NAME    = COSMOS 2242
OBJECT_ID      = 1993-024A
CENTER_NAME    = EARTH
REF_FRAME      = TEME
TIME_SYSTEM    = UTC
MEAN_ELEMENT_THEORY = SGP/SGP4

EPOCH          = 2026-02-10T03:42:30.632544
MEAN_MOTION    = 14.96434018
ECCENTRICITY   = .00175477
INCLINATION    = 82.5190
RA_OF_ASC_NODE = 293.0532
ARG_OF_PERICENTER = 41.9301
MEAN_ANOMALY   = 318.3261

EPHEMERIS_TYPE = 0
CLASSIFICATION_TYPE = U
NORAD_CAT_ID   = 22626
ELEMENT_SET_NO = 999
REV_AT_EPOCH   = 77627
BSTAR          = .18375315E-3
MEAN_MOTION_DOT = .2115E-4
MEAN_MOTION_DDOT = 0

CCSDS_OMM_VERS = 2.0
CREATION_DATE  = 
ORIGINATOR     = 

OBJECT_NAME    = SL-16 R/B
OBJECT_ID      = 1993-059B
CENTER_NAME    = EARTH
REF_FRAME      = TEME
TIME_SYSTEM    = UTC
MEAN_ELEMENT_THEORY = SGP/SGP4

EPOCH          = 2026-02-10T12:21:22.029120
MEAN_MOTION    = 14.17228093
ECCENTRICITY   = .00194924
INCLINATION    = 70.9891
RA_OF_ASC_NODE = 68.4348
ARG_OF_PERICENTER = 253.9427
MEAN_ANOMALY   = 105.9550

EPHEMERIS_TYPE = 0
CLASSIFICATION_TYPE = U
NORAD_CAT_ID   = 22803
ELEMENT_SET_NO = 999
REV_AT_EPOCH   = 67568
BSTAR          = .37765234E-4
MEAN_MOTION_DOT = .28E-6
MEAN_MOTION_DDOT = 0

CCSDS_OMM_VERS = 2.0
CREATION_DATE  = 
ORIGINATOR     = 

OBJECT_NAME    = ARIANE 40 R/B
OBJECT_ID      = 1993-061H
CENTER_NAME    = EARTH
REF_FRAME      = TEME
TIME_SYSTEM    = UTC
MEAN_ELEMENT_THEORY = SGP/SGP4

EPOCH          = 2026-02-10T04:26:43.698336
MEAN_MOTION    = 14.32846234
ECCENTRICITY   = .00107272
INCLINATION    = 98.4976
RA_OF_ASC_NODE = 110.6075
ARG_OF_PERICENTER = 11.9618
MEAN_ANOMALY   = 348.1819

EPHEMERIS_TYPE = 0
CLASSIFICATION_TYPE = U
NORAD_CAT_ID   = 22830
ELEMENT_SET_NO = 999
REV_AT_EPOCH   = 69016
BSTAR          = .9147076E-4
MEAN_MOTION_DOT = .206E-5
MEAN_MOTION_DDOT = 0

CCSDS_OMM_VERS = 2.0
CREATION_DATE  = 
ORIGINATOR     = 

OBJECT_NAME    = COSMOS 2278
OBJECT_ID      = 1994-023A
CENTER_NAME    = EARTH
REF_FRAME      = TEME
TIME_SYSTEM    = UTC
MEAN_ELEMENT_THEORY = SGP/SGP4

EPOCH          = 2026-02-10T13:56:49.099776
MEAN_MOTION    = 14.14363406
ECCENTRICITY   = .00067117
INCLINATION    = 71.0500
RA_OF_ASC_NODE = 231.8126
ARG_OF_PERICENTER = 65.0595
MEAN_ANOMALY   = 295.1225

EPHEMERIS_TYPE = 0
CLASSIFICATION_TYPE = U
NORAD_CAT_ID   = 23087
ELEMENT_SET_NO = 999
REV_AT_EPOCH   = 64097
BSTAR          = -.17125389E-4
MEAN_MOTION_DOT = -.8E-6
MEAN_MOTION_DDOT = 0

CCSDS_OMM_VERS = 2.0
CREATION_DATE  = 
ORIGINATOR     = 

OBJECT_NAME    = SL-16 R/B
OBJECT_ID      = 1994-023B
CENTER_NAME    = EARTH
REF_FRAME      = TEME
TIME_SYSTEM    = UTC
MEAN_ELEMENT_THEORY = SGP/SGP4

EPOCH          = 2026-02-10T13:39:39.565152
MEAN_MOTION    = 14.15003964
ECCENTRICITY   = .00044974
INCLINATION    = 70.9997
RA_OF_ASC_NODE = 127.8456
ARG_OF_PERICENTER = 311.0924
MEAN_ANOMALY   = 48.9810

EPHEMERIS_TYPE = 0
CLASSIFICATION_TYPE = U
NORAD_CAT_ID   = 23088
ELEMENT_SET_NO = 999
REV_AT_EPOCH   = 64225
BSTAR          = .87841221E-4
MEAN_MOTION_DOT = .122E-5
MEAN_MOTION_DDOT = 0

CCSDS_OMM_VERS = 2.0
CREATION_DATE  = 
ORIGINATOR     = 

OBJECT_NAME    = SL-16 R/B
OBJECT_ID      = 1994-074B
CENTER_NAME    = EARTH
REF_FRAME      = TEME
TIME_SYSTEM    = UTC
MEAN_ELEMENT_THEORY = SGP/SGP4

EPOCH          = 2026-02-10T13:07:39.733824
MEAN_MOTION    = 14.79375138
ECCENTRICITY   = .00055374
INCLINATION    = 97.7146
RA_OF_ASC_NODE = 73.4597
ARG_OF_PERICENTER = 319.9775
MEAN_ANOMALY   = 160.6985

EPHEMERIS_TYPE = 0
CLASSIFICATION_TYPE = U
NORAD_CAT_ID   = 23343
ELEMENT_SET_NO = 999
REV_AT_EPOCH   = 68323
BSTAR          = .77472524E-4
MEAN_MOTION_DOT = .528E-5
MEAN_MOTION_DDOT = 0

CCSDS_OMM_VERS = 2.0
CREATION_DATE  = 
ORIGINATOR     = 

OBJECT_NAME    = SL-16 R/B
OBJECT_ID      = 1994-077B
CENTER_NAME    = EARTH
REF_FRAME      = TEME
TIME_SYSTEM    = UTC
MEAN_ELEMENT_THEORY = SGP/SGP4

EPOCH          = 2026-02-10T10:04:54.806592
MEAN_MOTION    = 14.15557981
ECCENTRICITY   = .00042179
INCLINATION    = 70.9817
RA_OF_ASC_NODE = 49.8586
ARG_OF_PERICENTER = 234.2768
MEAN_ANOMALY   = 125.7963

EPHEMERIS_TYPE = 0
CLASSIFICATION_TYPE = U
NORAD_CAT_ID   = 23405
ELEMENT_SET_NO = 999
REV_AT_EPOCH   = 61237
BSTAR          = .13606235E-3
MEAN_MOTION_DOT = .218E-5
MEAN_MOTION_DDOT = 0

CCSDS_OMM_VERS = 2.0
CREATION_DATE  = 
ORIGINATOR     = 

OBJECT_NAME    = ARIANE 40+ R/B
OBJECT_ID      = 1995-021B
CENTER_NAME    = EARTH
REF_FRAME      = TEME
TIME_SYSTEM    = UTC
MEAN_ELEMENT_THEORY = SGP/SGP4

EPOCH          = 2026-02-10T05:28:55.563168
MEAN_MOTION    = 14.39752005
ECCENTRICITY   = .000616
INCLINATION    = 98.4555
RA_OF_ASC_NODE = 113.0753
ARG_OF_PERICENTER = 216.1555
MEAN_ANOMALY   = 213.0800

EPHEMERIS_TYPE = 0
CLASSIFICATION_TYPE = U
NORAD_CAT_ID   = 23561
ELEMENT_SET_NO = 999
REV_AT_EPOCH   = 61529
BSTAR          = .11767E-3
MEAN_MOTION_DOT = .325E-5
MEAN_MOTION_DDOT = 0

CCSDS_OMM_VERS = 2.0
CREATION_DATE  = 
ORIGINATOR     = 

OBJECT_NAME    = SL-16 R/B
OBJECT_ID      = 1995-058B
CENTER_NAME    = EARTH
REF_FRAME      = TEME
TIME_SYSTEM    = UTC
MEAN_ELEMENT_THEORY = SGP/SGP4

EPOCH          = 2026-02-10T13:36:33.970176
MEAN_MOTION    = 14.15493736
ECCENTRICITY   = .00121127
INCLINATION    = 71.0191
RA_OF_ASC_NODE = 237.1977
ARG_OF_PERICENTER = 170.8208
MEAN_ANOMALY   = 189.3139

EPHEMERIS_TYPE = 0
CLASSIFICATION_TYPE = U
NORAD_CAT_ID   = 23705
ELEMENT_SET_NO = 999
REV_AT_EPOCH   = 56401
BSTAR          = .15403347E-3
MEAN_MOTION_DOT = .254E-5
MEAN_MOTION_DDOT = 0

CCSDS_OMM_VERS = 2.0
CREATION_DATE  = 
ORIGINATOR     = 

OBJECT_NAME    = SL-16 R/B
OBJECT_ID      = 1996-051B
CENTER_NAME    = EARTH
REF_FRAME      = TEME
TIME_SYSTEM    = UTC
MEAN_ELEMENT_THEORY = SGP/SGP4

EPOCH          = 2026-02-10T13:05:43.502496
MEAN_MOTION    = 14.12407803
ECCENTRICITY   = .00173974
INCLINATION    = 70.7565
RA_OF_ASC_NODE = 232.6928
ARG_OF_PERICENTER = 186.2154
MEAN_ANOMALY   = 173.8752

EPHEMERIS_TYPE = 0
CLASSIFICATION_TYPE = U
NORAD_CAT_ID   = 24298
ELEMENT_SET_NO = 999
REV_AT_EPOCH   = 51781
BSTAR          = .76188891E-4
MEAN_MOTION_DOT = .91E-6
MEAN_MOTION_DDOT = 0

CCSDS_OMM_VERS = 2.0
CREATION_DATE  = 
ORIGINATOR     = 

OBJECT_NAME    = ORBVIEW 2 (SEASTAR)
OBJECT_ID      = 1997-037A
CENTER_NAME    = EARTH
REF_FRAME      = TEME
TIME_SYSTEM    = UTC
MEAN_ELEMENT_THEORY = SGP/SGP4

EPOCH          = 2026-02-10T10:37:53.465088
MEAN_MOTION    = 14.35473658
ECCENTRICITY   = .00029882
INCLINATION    = 98.8519
RA_OF_ASC_NODE = 205.0403
ARG_OF_PERICENTER = 127.2927
MEAN_ANOMALY   = 232.8531

EPHEMERIS_TYPE = 0
CLASSIFICATION_TYPE = U
NORAD_CAT_ID   = 24883
ELEMENT_SET_NO = 999
REV_AT_EPOCH   = 50456
BSTAR          = .14638796E-3
MEAN_MOTION_DOT = .374E-5
MEAN_MOTION_DDOT = 0

